{
    "links": {
        "self": "http://www.neowsapp.com/rest/v1/neo/3758253?api_key=iIulBulltgU6a56xZRHN4H3l9WmuAYTsLGpBGhQ2"
    },
    "id": "3758253",
    "neo_reference_id": "3758253",
    "name": "(2016 QO44)",
    "designation": "2016 QO44",
    "nasa_jpl_url": "http://ssd.jpl.nasa.gov/sbdb.cgi?sstr=3758253",
    "absolute_magnitude_h": 23.9,
    "estimated_diameter": {
        "kilometers": {
            "estimated_diameter_min": 0.04411182,
            "estimated_diameter_max": 0.0986370281
        },
        "meters": {
            "estimated_diameter_min": 44.1118199997,
            "estimated_diameter_max": 98.6370281305
        },
        "miles": {
            "estimated_diameter_min": 0.0274098057,
            "estimated_diameter_max": 0.0612901888
        },
        "feet": {
            "estimated_diameter_min": 144.7238235278,
            "estimated_diameter_max": 323.6123073718
        }
    },
    "is_potentially_hazardous_asteroid": false,
    "close_approach_data": [
        {
            "close_approach_date": "2016-08-20",
            "close_approach_date_full": "2016-Aug-20 20:05",
            "epoch_date_close_approach": 1471723500000,
            "relative_velocity": {
                "kilometers_per_second": "9.3075013495",
                "kilometers_per_hour": "33507.0048582444",
                "miles_per_hour": "20819.9497687242"
            },
            "miss_distance": {
                "astronomical": "0.1360578514",
                "lunar": "52.9265041946",
                "kilometers": "20353964.766216518",
                "miles": "12647367.2395152284"
            },
            "orbiting_body": "Earth"
        }
    ],
    "orbital_data": {
        "orbit_id": "5",
        "orbit_determination_date": "2017-04-06 08:24:20",
        "first_observation_date": "2016-08-29",
        "last_observation_date": "2016-09-14",
        "data_arc_in_days": 16,
        "observations_used": 38,
        "orbit_uncertainty": "8",
        "minimum_orbit_intersection": ".119497",
        "jupiter_tisserand_invariant": "4.391",
        "epoch_osculation": "2457633.5",
        "eccentricity": ".2719952981390351",
        "semi_major_axis": "1.533493721840509",
        "inclination": "17.19200605128331",
        "ascending_node_longitude": "334.2390673019661",
        "orbital_period": "693.6197175316366",
        "perihelion_distance": "1.116390639774161",
        "perihelion_argument": "337.351901361869",
        "aphelion_distance": "1.950596803906857",
        "perihelion_time": "2457600.256951418270",
        "mean_anomaly": "17.25368697996529",
        "mean_motion": ".5190163873673042",
        "equinox": "J2000",
        "orbit_class": {
            "orbit_class_type": "AMO",
            "orbit_class_description": "Near-Earth asteroid orbits similar to that of 1221 Amor",
            "orbit_class_range": "1.017 AU < q (perihelion) < 1.3 AU"
        }
    },
    "is_sentry_object": false
}